328P/LONEOS-Tucker,e,17.6633,341.6109,30.4972,4.197007,0.1146290,0.55127671,169.2106,01/08.0/2020,2000,g 14.5,4.0
# From MPC101101
329P/LINEAR-Catalina,e,21.6637,87.6854,343.5811,5.194127,0.0832598,0.67683391,124.8259,01/08.0/2020,2000,g 13.5,4.0
# From MPC105243
330P/Catalina,e,15.6930,293.0992,189.0089,6.634751,0.0576723,0.54942338,70.7736,01/08.0/2020,2000,g 12.0,4.0
# From MPC110497
331P/Gibbs,e,9.7403,216.7785,183.6476,3.002952,0.1894007,0.04049337,309.7781,01/08.0/2020,2000,g 12.0,4.0
# From MPEC 2016-K18
332P/Ikeya-Murakami,e,9.3819,3.7947,152.3921,3.087508,0.1816736,0.48949066,253.0870,01/08.0/2020,2000,g 18.0,4.0
# From MPEC 2016-EI8
332P-B/Ikeya-Murakami,e,9.3805,3.8028,152.3711,3.082329,0.1821317,0.48970701,359.9699,03/17.0/2016,2000,g 19.0,4.0
# From MPEC 2016-K18
332P-C/Ikeya-Murakami,e,9.3809,3.7951,152.3834,3.087474,0.1816766,0.48949603,253.0994,01/08.0/2020,2000,g 16.5,4.0
# From MPEC 2016-ED0
332P-D/Ikeya-Murakami,e,9.3761,3.7923,152.4393,3.081138,0.1822373,0.48977814,359.9486,03/17.0/2016,2000,g 19.0,4.0
# From MPEC 2016-ED0
332P-E/Ikeya-Murakami,e,9.3774,3.8228,152.2825,3.079877,0.1823493,0.48922008,359.9889,03/17.0/2016,2000,g 21.0,4.0
# From MPEC 2016-ED0
332P-F/Ikeya-Murakami,e,9.5293,3.4757,152.8203,3.163214,0.1751908,0.49918860,359.8501,03/17.0/2016,2000,g 21.0,4.0
# From MPEC 2016-ED0
332P-G/Ikeya-Murakami,e,9.2523,3.6955,154.4000,3.050519,0.1849880,0.49200362,359.9006,03/19.0/2016,2000,g 19.0,4.0
# From MPC100285
332P-H/Ikeya-Murakami,e,9.3814,3.7949,152.3841,3.087658,0.1816604,0.48953121,253.0439,01/08.0/2020,2000,g 19.0,4.0
# From MPEC 2016-ED0
332P-I/Ikeya-Murakami,e,9.3791,3.8048,152.3297,3.081767,0.1821815,0.48955490,359.9360,03/17.0/2016,2000,g 20.5,2.0
# From MPEC 2016-EI8
332P-J/Ikeya-Murakami,e,9.4296,3.6729,152.7712,3.115165,0.1792596,0.49429435,359.8613,03/17.0/2016,2000,g 20.5,2.0
# From MPC104796
333P/LINEAR,e,131.9571,115.6131,26.0861,4.221145,0.1136472,0.73597216,156.3532,01/08.0/2020,2000,g 15.0,4.0
# From MPC111774
334P/NEAT,e,20.5824,90.7729,89.3207,6.837076,0.0551313,0.35853430,51.8956,01/08.0/2020,2000,g 10.5,4.0
# From MPC100285
335P/Gibbs,e,7.2897,330.8421,162.2451,3.579099,0.1455605,0.54490790,222.0253,01/08.0/2020,2000,g 17.0,4.0
# From MPC105244
336P/McNaught,e,17.8340,298.2307,308.6830,5.028603,0.0874044,0.44591562,93.4066,01/08.0/2020,2000,g 13.5,4.0
# From MPC112394
337P/WISE,e,15.3736,106.0721,160.9629,3.287987,0.1653137,0.49695130,210.4295,01/08.0/2020,2000,g 17.0,4.0
# From MPC104796
338P/McNaught,e,25.3627,9.7879,4.4113,3.899324,0.1280030,0.41069682,146.1845,01/08.0/2020,2000,g 12.0,4.0
# From MPC101101
339P/Gibbs,e,5.7376,172.7591,27.5190,3.694851,0.1387742,0.63618198,175.3269,01/08.0/2020,2000,g 17.0,4.0
# From MPC102957
340P/Boattini,e,2.0797,291.7282,35.7703,4.252003,0.1124123,0.28037473,128.7033,01/08.0/2020,2000,g 13.0,4.0
# From MPC109148
341P/Gibbs,e,3.7939,30.0148,312.0895,4.295563,0.1107067,0.41474643,146.1978,01/08.0/2020,2000,g 12.5,4.0
# From MPC101101
342P/SOHO,e,12.6734,41.6463,59.7416,3.042082,0.1857581,0.98316594,0.0000,10/19.6008/2021,2000,g  9.0,4.0
# From MPC109148
343P/NEAT-LONEOS,e,5.5828,257.2475,137.3972,5.464090,0.0771662,0.58345365,82.9887,01/08.0/2020,2000,g 14.0,4.0
# From MPC109148
344P/Read,e,3.4902,273.1937,140.4556,4.869545,0.0917216,0.42124855,106.7192,01/08.0/2020,2000,g 13.0,4.0
# From MPC109148
345P/LINEAR,e,2.7259,154.4970,196.3514,4.041582,0.1213045,0.22020941,154.2074,01/08.0/2020,2000,g 12.0,4.0
# From MPC110086
346P/Catalina,e,22.1855,102.4683,336.0465,4.477187,0.1040390,0.50250280,110.0143,01/08.0/2020,2000,g 14.0,4.0
# From MPC108599
347P/PANSTARRS,e,11.7475,261.0505,98.2891,3.608137,0.1438069,0.38501987,174.5041,01/08.0/2020,2000,g 15.0,4.0
# From MPC104796
348P/PANSTARRS,e,17.7067,312.9551,135.0660,3.159911,0.1754655,0.30540766,225.6578,01/08.0/2020,2000,g 14.0,4.0
# From MPC112394
349P/Lemmon,e,5.4916,331.7565,256.0239,3.571120,0.1460486,0.29973104,126.2679,01/08.0/2020,2000,g 14.0,4.0
# From MPC111775
350P/McNaught,e,7.3584,65.4392,141.7948,4.103127,0.1185855,0.09045958,88.1403,01/08.0/2020,2000,g 14.0,4.0
# From MPC105244
351P/Wiegert-PANSTARRS,e,12.7907,283.4493,352.5824,4.436431,0.1054760,0.29623027,159.4450,01/08.0/2020,2000,g 12.5,4.0
# From MPC110086
352P/Skiff,e,21.0104,28.1259,309.0970,6.633029,0.0576947,0.61793739,53.6619,01/08.0/2020,2000,g 11.5,4.0
# From MPC108599
353P/McNaught,e,28.4224,121.5617,230.3781,4.171761,0.1156711,0.46962337,86.5106,01/08.0/2020,2000,g 14.5,4.0
# From MPC105545
354P/LINEAR,e,5.2553,320.1318,133.0971,2.289949,0.2844235,0.12562671,328.5438,01/08.0/2020,2000,g 15.5,4.0
# From MPC109594
355P/LINEAR-NEAT,e,11.0336,51.4495,336.2628,3.473550,0.1522452,0.50653127,124.4440,01/08.0/2020,2000,g 15.5,2.0
# From MPC109148
356P/WISE,e,9.6325,160.7892,226.0701,4.162140,0.1160724,0.35432685,87.3049,01/08.0/2020,2000,g 14.0,4.0
# From MPC114609
357P/Hill,e,6.3088,44.5944,1.4612,4.463640,0.1045130,0.43428806,61.5818,01/08.0/2020,2000,g 15.5,4.0
# From MPC106350
358P/PANSTARRS,e,11.0571,85.7191,299.7784,3.149442,0.1763411,0.23782327,112.2682,01/08.0/2020,2000,g 18.0,4.0
# From MPC110086
359P/LONEOS,e,10.2630,149.7652,200.1153,4.639505,0.0986272,0.32364711,85.8394,01/08.0/2020,2000,g 13.5,4.0
# From MPC108599
360P/WISE,e,24.0875,2.2023,354.1124,3.703703,0.1382770,0.49828362,120.6347,01/08.0/2020,2000,g 19.5,6.0
# From MPC114609
361P/Spacewatch,e,13.8837,203.2619,219.1539,4.942825,0.0896894,0.43772532,49.7563,01/08.0/2020,2000,g 12.0,4.0
# From MPEC 2017-V13
362P/,e,15.5623,192.6011,53.6387,3.966576,0.1247615,0.28019454,153.6949,01/08.0/2020,2000,g 12.9,2.0
# From MPC114609
363P/Lemmon,e,4.0131,167.0700,318.6508,3.427719,0.1553088,0.56053162,101.2930,01/08.0/2020,2000,g 17.5,4.0
# From MPC114609
364P/PANSTARRS,e,12.1508,46.2186,211.9632,2.878426,0.2018234,0.72260680,113.5511,01/08.0/2020,2000,g 17.0,2.0
# From MPC111775
365P/PANSTARRS,e,9.8401,87.4354,66.2478,3.181690,0.1736670,0.57442650,120.8775,01/08.0/2020,2000,g 17.0,4.0
# From MPC114610
366P/Spacewatch,e,8.8595,70.7536,153.1810,3.495743,0.1507977,0.34867275,80.7806,01/08.0/2020,2000,g 15.0,4.0
# From MPC112395
367P/Catalina,e,8.4638,58.7143,172.9285,3.505064,0.1501966,0.28073776,84.9311,01/08.0/2020,2000,g 17.5,2.0
# From MPC114610
368P/NEAT,e,15.4844,257.9752,118.7865,5.526732,0.0758580,0.62597952,36.4674,01/08.0/2020,2000,g 14.0,4.0
# From MPC114610
369P/Hill,e,10.3087,47.3121,13.2429,4.387835,0.1072330,0.55410972,48.2482,01/08.0/2020,2000,g 15.0,4.0
# From MPC114610
370P/NEAT,e,19.3976,55.1524,356.7294,6.439726,0.0603119,0.61427342,34.8382,01/08.0/2020,2000,g 13.0,4.0
# From MPC114610
371P/LINEAR-Skiff,e,17.3785,67.3316,308.4621,4.181812,0.1152544,0.47618672,53.0639,01/08.0/2020,2000,g 16.0,4.0
# From MPEC 2019-TG9
372P/McNaught,e,9.5094,325.8280,27.0513,4.500973,0.1032154,0.15232955,45.9160,01/08.0/2020,2000,g 13.5,4.0
# From MPC114610
373P/Rinner,e,13.7577,231.9541,221.1852,3.806471,0.1327151,0.39228078,36.3574,01/08.0/2020,2000,g 14.5,4.0
# From MPC114610
374P/Larson,e,10.7584,7.9222,51.5703,4.976812,0.0887722,0.46227191,32.1569,01/08.0/2020,2000,g 14.0,4.0
# From MPC114610
375P/Hill,e,17.3641,359.9591,119.4466,5.560625,0.0751655,0.65909202,28.7566,01/08.0/2020,2000,g 16.0,4.0
# From MPC114610
376P/LONEOS,e,1.1926,314.8637,285.4130,5.868750,0.0693243,0.51765978,6.9886,01/08.0/2020,2000,g 12.5,4.0
# From MPC115888
377P/Scotti,e,9.0216,226.0601,354.9139,6.714909,0.0566427,0.25287886,349.5361,01/08.0/2020,2000,g  9.5,4.0
# From MPEC 2019-TG9
378P/McNaught,e,19.1103,94.5142,194.2237,6.353937,0.0615375,0.46804751,342.2846,01/08.0/2020,2000,g 12.0,4.0
# From MPC115889
379P/Spacewatch,e,12.3840,184.0112,31.2326,3.527568,0.1487616,0.33848864,23.7107,01/08.0/2020,2000,g 15.0,4.0
# From MPEC 2019-TG9
380P/PANSTARRS,e,8.2371,133.0552,90.1208,4.539926,0.1018899,0.32831678,21.9049,01/08.0/2020,2000,g 12.5,4.0
# From MPEC 2019-TG9
381P/LINEAR-Spacewatch,e,28.3767,173.7917,173.0974,7.112603,0.0519591,0.68148996,5.3574,01/08.0/2020,2000,g 17.5,2.0
# From MPC115889
382P/Larson,e,7.6603,178.4394,174.6021,6.163909,0.0644050,0.29411497,305.8201,01/08.0/2020,2000,g  8.0,4.0
# From MPC118844
383P/Christensen,e,12.3224,207.8983,133.6187,3.543004,0.1477905,0.59942955,10.9058,01/08.0/2020,2000,g 18.0,4.0
# From MPC118844
384P/Kowalski,e,7.2811,354.2305,37.6489,2.901868,0.1993828,0.61529536,17.6629,01/08.0/2020,2000,g 19.5,4.0
# From MPC118844
385P/Hill,e,16.8261,357.0778,44.3280,4.287343,0.1110252,0.40112197,12.7923,01/08.0/2020,2000,g 13.0,4.0
# From MPEC 2019-X94
386P/PANSTARRS,e,15.2286,134.9505,353.2761,4.058322,0.1205548,0.41647363,332.9420,01/08.0/2020,2000,g 14.5,4.0
# From MPC118845
387P/Boattini,e,8.9170,259.3399,162.8023,4.802487,0.0936493,0.73600742,11.5960,01/08.0/2020,2000,g 15.0,4.0
# From MPC118845
388P/Gibbs,e,23.8585,37.0552,42.4174,5.249210,0.0819527,0.61804903,13.7997,01/08.0/2020,2000,g 13.0,4.0
# From MPC118845
389P/Siding Spring,e,160.0687,218.8378,249.2963,5.627945,0.0738209,0.70445124,0.7175,01/08.0/2020,2000,g 16.0,4.0
# From MPC118845
390P/Gibbs,e,18.5597,152.2800,232.3352,5.797561,0.0706051,0.70680488,354.7592,01/08.0/2020,2000,g 12.0,4.0
# From MPC118099
391P/Kowalski,e,21.2761,124.7344,186.5204,4.674323,0.0975273,0.12078081,64.4960,01/08.0/2020,2000,g  8.0,4.0
# From MPC118845
392P/LINEAR,e,4.9294,24.8892,71.9972,6.149943,0.0646245,0.68288741,354.5811,01/08.0/2020,2000,g 14.5,4.0
# From MPC118845
393P/Spacewatch-Hill,e,16.7978,36.4203,327.9510,4.781906,0.0942546,0.11990312,7.2332,01/08.0/2020,2000,g 11.0,4.0
# From MPC107687
1I/`Oumuamua,h,09/09.4886/2017,122.6778,24.5997,241.6845,1.199252,0.255240,2000,23.0,2.0
# From MPC118844
2I/Borisov,h,12/08.5552/2019,44.0526,308.1483,209.1255,3.356796,2.006562,2000,11.0,4.0
